# From MPEC 2022-A21
C/2021 O3 (PANSTARRS),h,04/21.0478/2022,56.7906,189.0194,299.9907,1.000112,0.287321,2000,10.5,4.0
# From MPEC 2021-W31
C/2021 P1 (PANSTARRS),e,51.6320,359.6745,40.3988,5215,0.0000026,0.99916112,0.0000,06/01.9730/2022,2000,g 11.0,4.0
# From MPEC 2021-W31
C/2021 P2 (PANSTARRS),e,150.0300,32.0076,76.5167,3812,0.0000042,0.99866963,0.0000,01/21.8205/2023,2000,g  9.0,4.0
# From MPEC 2021-W31
P/2021 P3 (PANSTARRS),e,27.1612,358.2392,334.1663,4.416889,0.1061767,0.33982647,26.3629,02/03.0/2022,2000,g 14.0,4.0
# From MPEC 2022-A21
C/2021 P4 (ATLAS),e,56.3116,348.0963,175.8226,313.7824,0.0001773,0.99655667,0.0000,07/30.3807/2022,2000,g  9.5,4.0
# From MPEC 2021-Y10
C/2021 Q3 (ATLAS),e,77.7768,307.9031,114.0847,74.75406,0.0015249,0.93037476,0.0122,02/03.0/2022,2000,g  8.0,4.0
# From MPEC 2021-UA9
C/2021 Q4 (Fuls),h,06/09.2308/2023,71.4736,183.3326,146.9136,1.003322,7.566583,2000,6.0,4.0
# From MPEC 2021-WD8
P/2021 Q5 (ATLAS),e,10.7341,239.7725,180.8977,3.285900,0.1654712,0.62429047,25.9070,02/03.0/2022,2000,g 15.0,4.0
# From MPEC 2021-Y10
C/2021 Q6 (PANSTARRS),e,161.8471,133.5387,140.8279,8495,0.0000013,0.99897428,0.0000,03/21.7678/2024,2000,g  6.0,4.0
# From MPEC 2021-W31
P/2021 R1 (PANSTARRS),e,5.5212,143.4073,220.3244,8.411429,0.0404017,0.41914920,1.9125,02/03.0/2022,2000,g 11.0,4.0
# From MPEC 2021-W31
C/2021 R2 (PANSTARRS),e,134.4660,16.2810,32.3465,1954,0.0000114,0.99625899,0.0000,12/25.7280/2021,2000,g  7.5,4.0
# From MPEC 2021-W31
P/2021 R3 (PANSTARRS),e,19.9276,304.2346,2.9245,3.777345,0.1342531,0.33160061,33.8626,02/03.0/2022,2000,g 16.0,4.0
# From MPEC 2021-W31
P/2021 R4 (Wierzchos),e,21.0400,321.2559,56.6312,5.617594,0.0740250,0.58593991,8.2956,02/03.0/2022,2000,g 16.0,4.0
# From MPEC 2022-A21
P/2021 R5 (Rankin),e,7.8539,219.9596,167.3545,4.795349,0.0938585,0.30709039,2.0584,02/03.0/2022,2000,g 12.0,4.0
# From MPEC 2021-W31
P/2021 R6 (Groeller),e,34.9270,176.1153,220.7288,6.272812,0.0627351,0.59314108,5.9041,02/03.0/2022,2000,g 14.5,4.0
# From MPEC 2021-W31
C/2021 R7 (PANSTARRS),e,158.8565,170.1433,140.0569,1355,0.0000198,0.99583515,0.0000,04/15.1170/2021,2000,g 10.5,4.0
# From MPEC 2021-Y10
P/2021 R8 (Sheppard),e,2.2033,167.0289,190.7668,3.017205,0.1880602,0.29371548,22.2956,02/03.0/2022,2000,g 18.5,4.0
# From MPEC 2022-A21
C/2021 S1 (ATLAS),h,03/01.1953/2022,52.0907,299.8717,148.2133,1.000824,6.118818,2000,7.0,4.0
# From MPEC 2022-A21
C/2021 S3 (PANSTARRS),e,58.5451,215.6463,6.9140,4012,0.0000039,0.99967135,0.0000,02/14.8630/2024,2000,g  5.5,4.0
# From MPEC 2022-A21
C/2021 S4 (Tsuchinshan),e,17.4814,5.4988,72.7573,163.4243,0.0004718,0.95905529,359.6711,02/03.0/2022,2000,g  6.5,4.0
# From MPEC 2021-Y10
C/2021 T1 (Lemmon),e,140.3493,56.8174,51.5073,1011,0.0000307,0.99697604,0.0000,10/14.0919/2021,2000,g 12.5,4.0
# From MPEC 2022-A21
C/2021 T2 (Fuls),h,06/07.8954/2022,117.5265,223.2317,263.5961,1.000150,1.247620,2000,12.0,4.0
# From MPEC 2022-A21
C/2021 T4 (Lemmon),e,160.7560,257.7966,329.7817,9994,0.0000010,0.99985172,0.0000,07/31.5338/2023,2000,g  7.5,4.0
# From MPEC 2022-A21
P/2021 U1 (Wierzchos),e,30.5605,246.7895,145.0488,8.511572,0.0396908,0.71274069,4.9618,02/03.0/2022,2000,g 14.5,4.0
# From MPEC 2022-A21
P/2021 U3 (Attard-Maury),e,69.9652,75.1128,335.2152,4.193203,0.1147850,0.55001423,11.6082,02/03.0/2022,2000,g 15.5,4.0
# From MPEC 2021-W31
C/2021 U4 (Leonard),e,152.8778,241.8061,237.2798,44.90929,0.0032749,0.96019928,0.1410,02/03.0/2022,2000,g 17.0,4.0
# From MPEC 2022-A21
C/2021 U5 (Catalina),e,39.0439,182.8050,321.3621,315.3737,0.0001760,0.99249951,0.0000,01/26.4088/2022,2000,g 13.0,4.0
# From MPEC 2021-Y10
C/2021 V1 (Rankin),e,71.4447,207.6523,195.1079,660.4075,0.0000581,0.99543698,0.0000,04/30.3783/2022,2000,g 13.0,4.0
# From MPEC 2022-A21
P/2021 V2 (Fuls),e,12.6954,232.2922,259.8300,9.035343,0.0362900,0.61296257,347.2052,02/03.0/2022,2000,g 10.0,4.0
# From MPEC 2022-A21
A/2021 X1,e,140.1329,10.6207,334.7957,3338,0.0000051,0.99903350,0.0000,05/27.4881/2023,2000,g 11.5,2.0
# From MPEC 2022-A21
A/2021 X2,h,07/08.0642/2022,137.1467,228.7932,193.2551,1.001786,2.995093,2000,16.0,2.0
# From MPEC 2022-A50
C/2021 Y1 (ATLAS),h,04/30.8764/2023,77.2067,244.7522,245.8021,1.000558,2.033592,2000,7.0,4.0
# From MPEC 2022-A59
C/2022 A1 (Sarneczky),h,01/31.1017/2022,116.5457,285.5206,201.1551,1.001802,1.253111,2000,19.0,4.0
# From MPEC 2022-C01
C/2022 A2 (PANSTARRS),h,02/16.4697/2023,108.2608,171.5490,88.1021,1.008284,1.734599,2000,9.5,4.0
# From MPEC 2022-C02
P/2022 B1 (Wierzchos),e,10.9913,148.8477,325.4904,5.465234,0.0771420,0.65294837,358.2756,02/03.0/2022,2000,g 16.5,4.0
# From  98, 1083
1P/Halley,e,162.2247,58.9695,111.8980,17.87233,0.0130447,0.96631631,171.3820,02/03.0/2022,2000,g  4.0,6.0
# From MPEC 2021-TD0
2P/Encke,e,11.7183,334.4843,186.7566,2.218793,0.2982146,0.84971234,174.1904,02/03.0/2022,2000,g 11.5,6.0
# From MPEC 2022-A21
4P/Faye,e,8.0083,192.9305,207.0059,3.824123,0.1317973,0.57665631,19.3945,02/03.0/2022,2000,g  8.0,6.0
# From MPEC 2022-A21
6P/d'Arrest,e,19.5122,138.9348,178.0870,3.497528,0.1506823,0.61271950,20.8305,02/03.0/2022,2000,g  7.5,16.0
# From MPEC 2021-Y10
7P/Pons-Winnecke,e,22.3628,93.3586,172.5831,3.413019,0.1563134,0.63849513,39.3761,02/03.0/2022,2000,g 10.0,6.0
# From MPEC 2021-Y10
8P/Tuttle,e,54.9114,270.2015,207.4883,5.706922,0.0722938,0.82021915,11.5139,02/03.0/2022,2000,g  8.0,8.0
# From MPEC 2022-A21
9P/Tempel,e,10.4700,68.7141,179.3494,3.146030,0.1766281,0.50914916,354.7101,02/03.0/2022,2000,g  5.5,10.0
# From MPEC 2022-A21
10P/Tempel,e,12.0392,117.8099,195.4992,3.060735,0.1840625,0.53846257,58.1193,02/03.0/2022,2000,g  5.0,10.0
# From MPEC 2021-UA9
11P/Tempel-Swift-LINEAR,e,14.4219,238.8959,167.9650,3.283825,0.1656281,0.57719239,71.8308,02/03.0/2022,2000,g 17.0,4.0
# From  27, 604
12P/Pons-Brooks,e,74.1524,255.7953,198.9892,17.15490,0.0138714,0.95443293,348.7968,02/03.0/2022,2000,g  5.0,6.0
# From  27, 604
13P/Olbers,e,44.6186,85.9330,64.4116,16.74930,0.0143783,0.92984430,347.3585,02/03.0/2022,2000,g  5.0,6.0
# From MPEC 2021-F20
14P/Wolf,e,27.9192,202.0460,159.0456,4.258475,0.1121561,0.35710030,170.7731,02/03.0/2022,2000,g  5.5,12.0
# From MPEC 2022-A21
15P/Finlay,e,6.7977,13.7121,347.8355,3.506303,0.1501170,0.71704834,30.7022,02/03.0/2022,2000,g 12.0,4.0
# From MPEC 2022-A21
16P/Brooks,e,3.0116,138.8705,245.1996,3.656957,0.1409367,0.48635124,40.9698,02/03.0/2022,2000,g  7.5,10.0
# From MPEC 2022-A21
17P/Holmes,e,19.0319,326.6217,24.4974,3.635973,0.1421586,0.42762660,49.4882,02/03.0/2022,2000,g 10.0,6.0
# From MPEC 2022-A21
19P/Borrelly,e,29.3047,74.2471,351.9200,3.604737,0.1440103,0.63762520,0.1686,02/03.0/2022,2000,g  4.5,10.0
# From MPEC 2021-F20
21P/Giacobini-Zinner,e,32.0478,195.3455,172.8686,3.495531,0.1508114,0.71111729,187.1440,02/03.0/2022,2000,g 11.4,4.0
# From MPEC 2021-S45
22P/Kopff,e,4.7421,120.8326,163.0210,3.440219,0.1544631,0.54874636,353.3382,02/03.0/2022,2000,g  3.0,10.4
# From MPC 14747
23P/Brorsen-Metcalf,e,19.1574,312.3248,128.8859,16.94739,0.0141270,0.97161762,0.0000,08/05.2268/1989,2000,g 10.0,6.0
# From MPC110085
24P/Schaumasse,e,11.5178,78.4783,58.3482,4.053814,0.1207559,0.70795500,186.5182,02/03.0/2022,2000,g  6.5,14.0
# From MPEC 2021-WD8
26P/Grigg-Skjellerup,e,22.4323,211.5392,2.1663,3.014624,0.1883018,0.64030047,229.9629,02/03.0/2022,2000,g 12.0,16.0
# From MPC 78188
27P/Crommelin,e,29.2579,250.6255,195.9121,9.183479,0.0354155,0.91849967,136.2690,02/03.0/2022,2000,g 12.0,8.0
# From MPEC 2022-A21
28P/Neujmin,e,14.3120,346.3324,347.4218,6.976419,0.0534879,0.77372095,17.5506,02/03.0/2022,2000,g  8.5,6.0
# From MPEC 2022-A21
29P/Schwassmann-Wachmann,e,9.3662,312.3823,49.8476,6.042112,0.0663622,0.04479124,68.6648,02/03.0/2022,2000,g  4.0,4.0
# From MPC110085
30P/Reinmuth,e,8.1451,118.0246,9.5746,3.710511,0.1378966,0.52059569,232.5297,02/03.0/2022,2000,g  9.5,6.0
# From MPEC 2021-F20
31P/Schwassmann-Wachmann,e,4.5476,114.1078,18.0475,4.237467,0.1129912,0.19214308,106.7548,02/03.0/2022,2000,g 13.1,4.0
# From MPC 92276
32P/Comas Sola,e,9.8719,55.4049,54.7774,4.521508,0.1025130,0.55898744,277.1994,02/03.0/2022,2000,g  6.5,8.0
# From MPEC 2013-O31
33P/Daniel,e,22.2973,66.3126,20.5114,4.086300,0.1193187,0.45164717,239.1140,02/03.0/2022,2000,g 10.0,12.0
# From  15, 452
35P/Herschel-Rigollet,e,65.235,356.708,28.961,28.5557,0.006459,0.9740612,0.000,01/14.2759/2092,2000,g  9.0,4.0
# From MPEC 2021-S45
36P/Whipple,e,9.9521,181.8453,200.9229,4.134949,0.1172192,0.26903422,71.6993,02/03.0/2022,2000,g  8.5,6.0
# From MPEC 2021-F20
37P/Forbes,e,8.9560,314.5636,330.1201,3.460835,0.1530850,0.53353911,209.8551,02/03.0/2022,2000,g 13.8,4.0
# From MPEC 2018-S50
38P/Stephan-Oterma,e,18.3707,77.9450,359.5010,11.23670,0.0261665,0.85911524,30.8712,02/03.0/2022,2000,g  3.5,12.0
# From MPEC 2022-A21
39P/Oterma,e,1.5537,298.9415,97.1050,7.360642,0.0493549,0.22261339,336.0478,02/03.0/2022,2000,g  7.0,6.0
# From MPC100283
40P/Vaisala,e,11.4694,133.7796,47.3919,4.953332,0.0894042,0.62970671,236.3253,02/03.0/2022,2000,g  5.5,12.0
# From MPC105240
41P/Tuttle-Giacobini-Kresak,e,9.2208,140.9890,62.2232,3.088003,0.1816300,0.65996572,319.6024,02/03.0/2022,2000,g 10.0,16.0
# From MPC 94283
42P/Neujmin,e,3.9914,150.1753,147.2310,4.873263,0.0916166,0.58511407,228.0052,02/03.0/2022,2000,g 13.0,6.0
# From MPC102956
43P/Wolf-Harrington,e,9.3341,244.0988,224.1108,4.316885,0.1098875,0.43552121,219.3037,02/03.0/2022,2000,g  8.0,6.0
# From MPEC 2021-TD0
44P/Reinmuth,e,5.8972,286.4790,58.0998,3.691454,0.1389658,0.42769992,348.9748,02/03.0/2022,2000,g  8.3,6.0
# From MPC103849
45P/Honda-Mrkos-Pajdusakova,e,4.3227,87.7046,327.9060,3.052932,0.1847687,0.81749276,344.9325,02/03.0/2022,2000,g 13.5,8.0
# From MPEC 2021-O56
46P/Wirtanen,e,11.7458,82.1572,356.3329,3.091859,0.1812903,0.65842882,208.2916,02/03.0/2022,2000,g 14.0,6.0
# From MPEC 2021-S45
47P/Ashbrook-Jackson,e,13.0409,356.9211,357.6732,4.123463,0.1177093,0.31854667,199.6938,02/03.0/2022,2000,g 12.5,4.0
# From MPEC 2021-F20
